#aV2012  4 27  0  0  0.00000000     288 DD+AD WGS84 FIT  NGA
## 1685 432000.00000000   300.00000000 56044 0.0000000000000
+   31     1  2  3  4  5  6  7  8  9 10 11 12 13 14 15 16 17
+         18 19 20 21 22 23 25 26 27 28 29 30 31 32  0  0  0
+          0  0  0  0  0  0  0  0  0  0  0  0  0  0  0  0  0
+          0  0  0  0  0  0  0  0  0  0  0  0  0  0  0  0  0
+          0  0  0  0  0  0  0  0  0  0  0  0  0  0  0  0  0
++         2  2  2  2  2  2  2  2  2  2  2  2  2  2  2  2  2
++         2  2  2  2  2  2  2  2  2  2  2  2  2  2  2  0  0
++         0  0  0  0  0  0  0  0  0  0  0  0  0  0  0  0  0
++         0  0  0  0  0  0  0  0  0  0  0  0  0  0  0  0  0
++         0  0  0  0  0  0  0  0  0  0  0  0  0  0  0  0  0
%c cc cc ccc ccc cccc cccc cccc cccc ccccc ccccc ccccc ccccc
%c cc cc ccc ccc cccc cccc cccc cccc ccccc ccccc ccccc ccccc
%f  0.0000000  0.000000000  0.00000000000  0.000000000000000
%f  0.0000000  0.000000000  0.00000000000  0.000000000000000
%i    0    0    0    0      0      0      0      0         0
%i    0    0    0    0      0      0      0      0         0
/*      NGA, ST. LOUIS,MO.                                  
/*   EPHEMERIS COMPUTED FROM  1 DAYS OF DATA
/*   EPOCHA SMOOTHER  
/* CCCCCCCCCCCCCCCCCCCCCCCCCCCCCCCCCCCCCCCCCCCCCCCCCCCCCCCCC
*  2012  4 27  8 45  0.00000000                                                 
P  1  16825.336324  13509.334012 -15513.401681    252.323791                    
V  1 -19751.389953   -972.199352 -22250.218699      0.034969                    
P  2   7887.553963 -14388.153557  20925.536851    388.175080                    
V  2  26086.326472   4594.950999  -7218.990696      0.013762                    
P  3  -8271.262776  24150.971795  -7252.495243     41.308268                    
V  3  -7667.574402   5555.483692  29395.377756      0.049309                    
P  4  20167.337661  -8170.010709  15194.020379    165.898995                    
V  4  19081.881004   5331.016230 -21785.672270      0.115519                    
P  5    475.014991 -23343.879078  12520.334217   -309.309136                    
V  5   8266.164932  13952.061709  25774.494470     -0.039894                    
P  6 -13182.544290  22617.868336  -3270.316927     29.185516                    
V  6  -5609.336785   1351.692330  31053.124051     -0.016739                    
P  7  25474.260912   6994.285470   3875.063711     76.163717                    
V  7  -5136.232507   1251.206026  31419.781764      0.032887                    
P  8  25199.660537    340.982698  -9199.400287      1.090583                    
V  8  10936.402182   3896.431792  29334.464420      0.000362                    
P  9 -12589.651092 -14487.760427 -18899.570674    154.285871                    
V  9  22714.380831   2269.959175 -17420.375045      0.025687                    
P 10  13116.201989  -8542.982702  21169.131195    -36.593663                    
V 10  10062.701490  25674.125086   4469.090050     -0.010752                    
P 11  11153.776021  14700.883332 -19567.033382   -255.607764                    
V 11 -23946.906926   4381.102287 -10238.384939     -0.038388                    
P 12 -10476.793463 -24416.350155   2327.003175     65.778755                    
V 12    921.457972  -3451.569940 -31855.565810      0.021089                    
P 13  16583.576737   2366.367389  20490.227134    210.938828                    
V 13 -17717.805732  19388.789317  11923.778313     -0.023202                    
P 14 -20735.452569  13741.349435  -8926.167662    201.253547                    
V 14   6211.913971 -10046.508838 -29459.131156      0.010269                    
P 15  -3496.241140 -18063.874435 -19086.486962    -91.340293                    
V 15  16123.846018 -18309.754519  14589.265243      0.000483                    
P 16  -1501.491690  22877.950019  13133.802887   -232.855259                    
V 16  -7278.634975 -15218.942180  26002.151217     -0.013627                    
P 17  20637.354747 -12279.007022 -10907.653326    132.908880                    
V 17  -7294.965828  12457.109520 -27613.750415     -0.026156                    
P 18 -17470.918289  -9058.362379 -17642.689017    192.959408                    
V 18  -6303.192594 -22292.492820  16974.586593      0.018213                    
P 19   -423.008301  19036.053964 -18393.246366   -259.629864                    
V 19 -17467.562662  15693.670459  17061.870159     -0.037494                    
P 20  14578.293003  21245.218120   6430.121472     63.245961                    
V 20    119.415294   9115.399124 -29581.741969      0.000529                    
P 21 -26526.243202  -4332.553944     95.420781   -219.966156                    
V 21     69.935204  -3269.022256  30718.055151     -0.024689                    
P 22 -13938.640596   7743.207041 -21054.967613    143.584398                    
V 22  -9936.706740 -25423.833347  -2872.362455      0.000691                    
P 23   9326.890293  12389.908908  21555.762062    210.851219                    
V 23 -17842.126821  20731.088961  -4566.813776     -0.036317                    
P 25 -16687.713334 -14558.181492  14680.718784     33.383742                    
V 25  -5177.374136 -18016.912507 -23642.302038      0.003784                    
P 26  10340.361921 -21766.641711 -11346.847630   -360.069409                    
V 26  10764.891457  -8481.522193  27961.506272     -0.525303                    
P 27  -6883.716718 -14625.813013 -20563.345608    381.828020                    
V 27  27248.343356   2583.640648 -10182.083754      0.040701                    
P 28  13981.083941  -4106.194844 -21657.296518    137.888162                    
V 28   9143.898861  27296.123002    498.146465      0.040637                    
P 29 -15044.075352  -5319.385222  21292.802142    307.319698                    
V 29  17268.492534 -20609.517344   7119.398461      0.036444                    
P 30  -6934.492192  16336.440932  19401.986246   -151.511225                    
V 30 -12711.760410 -22050.091476  13778.827923     -0.191284                    
P 31 -19060.828196   8193.838753  16914.044634    235.781794                    
V 31 -20456.913871  -4765.489028 -20745.012714      0.042525                    
P 32   7536.176509  25740.843252     74.733532   -437.468028                    
V 32  -2622.270131    596.066838 -31254.870556     -0.043559                    
EOF
